Case where positive zero function barely crosses the x-axis, i.e. two very close zeros.

EROS C3
1 54880U 22179A   23147.44232990  .00006430  00000+0  20916-3 0  9999
2 54880 139.3581   8.5149 0012925 260.5407  99.3945 15.29442116 22656

GeoPosition(-62.23136355180276, -105.76181776155057, 0)
JulianDate(5, 29, 2023, 21, 18, 19.243000000002212, -5.0)


Case where zero's completely disappear.

EROS C3
1 54880U 22179A   23147.44232990  .00006430  00000+0  20916-3 0  9999
2 54880 139.3581   8.5149 0012925 260.5407  99.3945 15.29442116 22656

GeoPosition(62.5818464830717, 119.94391125013482, 0)
JulianDate(5, 31, 2023, 22, 20, 13.789000000004307, -5.0)